{
  "norad_id": 40105,
  "name": "NAVSTAR 71 (USA 256)",
  "history": [
    {
      "epoch": "2026-03-28T06:43:51.050208Z",
      "apogee_km": 20266.484129928136,
      "perigee_km": 20099.80147465683,
      "latitude_deg": -1.5538543153751894e-05,
      "longitude_deg": 165.01605641892957,
      "height_km": 20224.781393684178,
      "semi_major_axis_km": 26561.279802292484,
      "eccentricity": 0.0031377,
      "inclination_deg": 55.2986,
      "raan_deg": 91.6863,
      "arg_perigee_deg": 119.9296,
      "mean_anomaly_deg": 240.4172,
      "mean_motion_rev_day": 2.00553048
    }
  ]
}